CCSDS_OMM_VERS = 2.0
CREATION_DATE  = 
ORIGINATOR     = 

OBJECT_NAME    = STARLINK-36612
OBJECT_ID      = 2026-016V
CENTER_NAME    = EARTH
REF_FRAME      = TEME
TIME_SYSTEM    = UTC
MEAN_ELEMENT_THEORY = SGP/SGP4

EPOCH          = 2026-02-18T14:47:48.998112
MEAN_MOTION    = 15.81006014
ECCENTRICITY   = .00015255
INCLINATION    = 97.2826
RA_OF_ASC_NODE = 109.2030
ARG_OF_PERICENTER = 59.2359
MEAN_ANOMALY   = 300.9060

EPHEMERIS_TYPE = 0
CLASSIFICATION_TYPE = U
NORAD_CAT_ID   = 67580
ELEMENT_SET_NO = 999
REV_AT_EPOCH   = 380
BSTAR          = .21606784E-2
MEAN_MOTION_DOT = .439047E-2
MEAN_MOTION_DDOT = 0

CCSDS_OMM_VERS = 2.0
CREATION_DATE  = 
ORIGINATOR     = 

OBJECT_NAME    = STARLINK-36632
OBJECT_ID      = 2026-016W
CENTER_NAME    = EARTH
REF_FRAME      = TEME
TIME_SYSTEM    = UTC
MEAN_ELEMENT_THEORY = SGP/SGP4

EPOCH          = 2026-02-18T02:58:50.488608
MEAN_MOTION    = 15.75237442
ECCENTRICITY   = .00016165
INCLINATION    = 97.2836
RA_OF_ASC_NODE = 108.6483
ARG_OF_PERICENTER = 99.5703
MEAN_ANOMALY   = 260.5745

EPHEMERIS_TYPE = 0
CLASSIFICATION_TYPE = U
NORAD_CAT_ID   = 67581
ELEMENT_SET_NO = 999
REV_AT_EPOCH   = 372
BSTAR          = .11126719E-2
MEAN_MOTION_DOT = .169516E-2
MEAN_MOTION_DDOT = 0

CCSDS_OMM_VERS = 2.0
CREATION_DATE  = 
ORIGINATOR     = 

OBJECT_NAME    = STARLINK-36609
OBJECT_ID      = 2026-016X
CENTER_NAME    = EARTH
REF_FRAME      = TEME
TIME_SYSTEM    = UTC
MEAN_ELEMENT_THEORY = SGP/SGP4

EPOCH          = 2026-02-18T03:21:42.420384
MEAN_MOTION    = 15.75225102
ECCENTRICITY   = .00010117
INCLINATION    = 97.2841
RA_OF_ASC_NODE = 108.6259
ARG_OF_PERICENTER = 112.9339
MEAN_ANOMALY   = 247.2033

EPHEMERIS_TYPE = 0
CLASSIFICATION_TYPE = U
NORAD_CAT_ID   = 67582
ELEMENT_SET_NO = 999
REV_AT_EPOCH   = 372
BSTAR          = .90713181E-3
MEAN_MOTION_DOT = .137583E-2
MEAN_MOTION_DDOT = 0

CCSDS_OMM_VERS = 2.0
CREATION_DATE  = 
ORIGINATOR     = 

OBJECT_NAME    = STARLINK-36577
OBJECT_ID      = 2026-016Y
CENTER_NAME    = EARTH
REF_FRAME      = TEME
TIME_SYSTEM    = UTC
MEAN_ELEMENT_THEORY = SGP/SGP4

EPOCH          = 2026-02-18T14:45:41.772384
MEAN_MOTION    = 15.80991697
ECCENTRICITY   = .00023003
INCLINATION    = 97.2829
RA_OF_ASC_NODE = 109.2046
ARG_OF_PERICENTER = 42.6212
MEAN_ANOMALY   = 317.5234

EPHEMERIS_TYPE = 0
CLASSIFICATION_TYPE = U
NORAD_CAT_ID   = 67583
ELEMENT_SET_NO = 999
REV_AT_EPOCH   = 380
BSTAR          = .21176194E-2
MEAN_MOTION_DOT = .42953E-2
MEAN_MOTION_DDOT = 0

CCSDS_OMM_VERS = 2.0
CREATION_DATE  = 
ORIGINATOR     = 

OBJECT_NAME    = STARLINK-36419
OBJECT_ID      = 2026-016Z
CENTER_NAME    = EARTH
REF_FRAME      = TEME
TIME_SYSTEM    = UTC
MEAN_ELEMENT_THEORY = SGP/SGP4

EPOCH          = 2026-02-18T14:00:03.000384
MEAN_MOTION    = 15.75255648
ECCENTRICITY   = .000143
INCLINATION    = 97.2890
RA_OF_ASC_NODE = 109.1688
ARG_OF_PERICENTER = 115.6744
MEAN_ANOMALY   = 56.4642

EPHEMERIS_TYPE = 0
CLASSIFICATION_TYPE = U
NORAD_CAT_ID   = 67584
ELEMENT_SET_NO = 999
REV_AT_EPOCH   = 497
BSTAR          = -.48519533E-3
MEAN_MOTION_DOT = -.72098E-3
MEAN_MOTION_DDOT = 0

CCSDS_OMM_VERS = 2.0
CREATION_DATE  = 
ORIGINATOR     = 

OBJECT_NAME    = STARLINK-36560
OBJECT_ID      = 2026-016AA
CENTER_NAME    = EARTH
REF_FRAME      = TEME
TIME_SYSTEM    = UTC
MEAN_ELEMENT_THEORY = SGP/SGP4

EPOCH          = 2026-02-18T14:37:27.763104
MEAN_MOTION    = 15.80967410
ECCENTRICITY   = .00020918
INCLINATION    = 97.2834
RA_OF_ASC_NODE = 109.2133
ARG_OF_PERICENTER = 64.8581
MEAN_ANOMALY   = 295.2904

EPHEMERIS_TYPE = 0
CLASSIFICATION_TYPE = U
NORAD_CAT_ID   = 67585
ELEMENT_SET_NO = 999
REV_AT_EPOCH   = 380
BSTAR          = .13769087E-2
MEAN_MOTION_DOT = .273944E-2
MEAN_MOTION_DDOT = 0

CCSDS_OMM_VERS = 2.0
CREATION_DATE  = 
ORIGINATOR     = 

OBJECT_NAME    = NAVSTAR 85 (USA 581)
OBJECT_ID      = 2026-017A
CENTER_NAME    = EARTH
REF_FRAME      = TEME
TIME_SYSTEM    = UTC
MEAN_ELEMENT_THEORY = SGP/SGP4

EPOCH          = 2026-02-17T12:56:41.465184
MEAN_MOTION    = 2.00561228
ECCENTRICITY   = .0000946
INCLINATION    = 55.0081
RA_OF_ASC_NODE = 93.5564
ARG_OF_PERICENTER = 45.2724
MEAN_ANOMALY   = 314.8210

EPHEMERIS_TYPE = 0
CLASSIFICATION_TYPE = U
NORAD_CAT_ID   = 67588
ELEMENT_SET_NO = 999
REV_AT_EPOCH   = 42921
BSTAR          = 0
MEAN_MOTION_DOT = .28E-6
MEAN_MOTION_DDOT = 0

CCSDS_OMM_VERS = 2.0
CREATION_DATE  = 
ORIGINATOR     = 

OBJECT_NAME    = STARLINK-36641
OBJECT_ID      = 2026-018A
CENTER_NAME    = EARTH
REF_FRAME      = TEME
TIME_SYSTEM    = UTC
MEAN_ELEMENT_THEORY = SGP/SGP4

EPOCH          = 2026-02-19T03:12:59.817024
MEAN_MOTION    = 15.75212792
ECCENTRICITY   = .0001577
INCLINATION    = 97.2825
RA_OF_ASC_NODE = 114.9771
ARG_OF_PERICENTER = 116.3043
MEAN_ANOMALY   = 243.8384

EPHEMERIS_TYPE = 0
CLASSIFICATION_TYPE = U
NORAD_CAT_ID   = 67589
ELEMENT_SET_NO = 999
REV_AT_EPOCH   = 438
BSTAR          = .9159E-3
MEAN_MOTION_DOT = .138863E-2
MEAN_MOTION_DDOT = 0

CCSDS_OMM_VERS = 2.0
CREATION_DATE  = 
ORIGINATOR     = 

OBJECT_NAME    = STARLINK-36376
OBJECT_ID      = 2026-018B
CENTER_NAME    = EARTH
REF_FRAME      = TEME
TIME_SYSTEM    = UTC
MEAN_ELEMENT_THEORY = SGP/SGP4

EPOCH          = 2026-02-19T04:00:01.999584
MEAN_MOTION    = 15.75197454
ECCENTRICITY   = .0000984
INCLINATION    = 97.2838
RA_OF_ASC_NODE = 115.0577
ARG_OF_PERICENTER = 78.7962
MEAN_ANOMALY   = 208.4383

EPHEMERIS_TYPE = 0
CLASSIFICATION_TYPE = U
NORAD_CAT_ID   = 67590
ELEMENT_SET_NO = 999
REV_AT_EPOCH   = 441
BSTAR          = -.92194E-4
MEAN_MOTION_DOT = -.13862E-3
MEAN_MOTION_DDOT = 0

CCSDS_OMM_VERS = 2.0
CREATION_DATE  = 
ORIGINATOR     = 

OBJECT_NAME    = STARLINK-36391
OBJECT_ID      = 2026-018C
CENTER_NAME    = EARTH
REF_FRAME      = TEME
TIME_SYSTEM    = UTC
MEAN_ELEMENT_THEORY = SGP/SGP4

EPOCH          = 2026-02-19T02:38:57.497280
MEAN_MOTION    = 15.80884298
ECCENTRICITY   = .0000836
INCLINATION    = 97.2841
RA_OF_ASC_NODE = 115.0107
ARG_OF_PERICENTER = 111.5487
MEAN_ANOMALY   = 248.5871

EPHEMERIS_TYPE = 0
CLASSIFICATION_TYPE = U
NORAD_CAT_ID   = 67591
ELEMENT_SET_NO = 999
REV_AT_EPOCH   = 438
BSTAR          = .60792E-3
MEAN_MOTION_DOT = .118261E-2
MEAN_MOTION_DDOT = 0

CCSDS_OMM_VERS = 2.0
CREATION_DATE  = 
ORIGINATOR     = 

OBJECT_NAME    = STARLINK-36603
OBJECT_ID      = 2026-018D
CENTER_NAME    = EARTH
REF_FRAME      = TEME
TIME_SYSTEM    = UTC
MEAN_ELEMENT_THEORY = SGP/SGP4

EPOCH          = 2026-02-19T04:00:01.999584
MEAN_MOTION    = 15.75186897
ECCENTRICITY   = .000125
INCLINATION    = 97.2842
RA_OF_ASC_NODE = 115.0678
ARG_OF_PERICENTER = 81.3315
MEAN_ANOMALY   = 229.9179

EPHEMERIS_TYPE = 0
CLASSIFICATION_TYPE = U
NORAD_CAT_ID   = 67592
ELEMENT_SET_NO = 999
REV_AT_EPOCH   = 437
BSTAR          = -.22766E-4
MEAN_MOTION_DOT = -.3523E-4
MEAN_MOTION_DDOT = 0

CCSDS_OMM_VERS = 2.0
CREATION_DATE  = 
ORIGINATOR     = 

OBJECT_NAME    = STARLINK-36634
OBJECT_ID      = 2026-018E
CENTER_NAME    = EARTH
REF_FRAME      = TEME
TIME_SYSTEM    = UTC
MEAN_ELEMENT_THEORY = SGP/SGP4

EPOCH          = 2026-02-19T02:36:13.515264
MEAN_MOTION    = 15.80892467
ECCENTRICITY   = .0001332
INCLINATION    = 97.2844
RA_OF_ASC_NODE = 115.0133
ARG_OF_PERICENTER = 104.1073
MEAN_ANOMALY   = 256.0343

EPHEMERIS_TYPE = 0
CLASSIFICATION_TYPE = U
NORAD_CAT_ID   = 67593
ELEMENT_SET_NO = 999
REV_AT_EPOCH   = 438
BSTAR          = .58573E-3
MEAN_MOTION_DOT = .113926E-2
MEAN_MOTION_DDOT = 0

