STARLINK-36612          
1 67580U 26016V   26049.61653933  .00439047  00000+0  21607-2 0  9992
2 67580  97.2826 109.2030 0001525  59.2359 300.9060 15.81006014  3808
STARLINK-36632          
1 67581U 26016W   26049.12419547  .00169516  00000+0  11127-2 0  9997
2 67581  97.2836 108.6483 0001616  99.5703 260.5745 15.75237442  3722
STARLINK-36609          
1 67582U 26016X   26049.14007431  .00137583  00000+0  90713-3 0  9993
2 67582  97.2841 108.6259 0001011 112.9339 247.2033 15.75225102  3726
STARLINK-36577          
1 67583U 26016Y   26049.61506681  .00429530  00000+0  21176-2 0  9999
2 67583  97.2829 109.2046 0002300  42.6212 317.5234 15.80991697  3803
STARLINK-36419          
1 67584U 26016Z   26049.58336806 -.00072098  00000+0 -48520-3 0  9994
2 67584  97.2890 109.1688 0001430 115.6744  56.4642 15.75255648  4971
STARLINK-36560          
1 67585U 26016AA  26049.60934911  .00273944  00000+0  13769-2 0  9996
2 67585  97.2834 109.2133 0002091  64.8581 295.2904 15.80967410  3802
NAVSTAR 85 (USA 581)    
1 67588U 26017A   26048.53936881  .00000028  00000+0  00000+0 0  9991
2 67588  55.0081  93.5564 0000946  45.2724 314.8210  2.00561228429213
STARLINK-36641          
1 67589U 26018A   26050.13402566  .00138863  00000+0  91590-3 0  9997
2 67589  97.2825 114.9771 0001577 116.3043 243.8384 15.75212792  4386
STARLINK-36376          
1 67590U 26018B   26050.16668981 -.00013862  00000+0 -92194-4 0  9992
2 67590  97.2838 115.0577 0000984  78.7962 208.4383 15.75197454  4417
STARLINK-36391          
1 67591U 26018C   26050.11038770  .00118261  00000+0  60792-3 0  9990
2 67591  97.2841 115.0107 0000836 111.5487 248.5871 15.80884298  4383
STARLINK-36603          
1 67592U 26018D   26050.16668981 -.00003523  00000+0 -22766-4 0  9995
2 67592  97.2842 115.0678 0001250  81.3315 229.9179 15.75186897  4370
STARLINK-36634          
1 67593U 26018E   26050.10848976  .00113926  00000+0  58573-3 0  9995
2 67593  97.2844 115.0133 0001332 104.1073 256.0343 15.80892467  4383
